QIANFAN-25              
1 61558U 24185G   25232.27021774  .00000358  00000+0  21082-3 0  9990
2 61558  88.9756  91.1626 0005648 313.0550  47.0158 14.05763035 53439
QIANFAN-26              
1 61559U 24185H   25231.85485492  .00000192  00000+0  17894-3 0  9997
2 61559  88.9772  92.1674 0006358  17.9651 342.1739 13.77727158 52856
QIANFAN-27              
1 61560U 24185J   25232.25747733  .00000437  00000+0  17325-3 0  9994
2 61560  88.9763  90.3833 0006617 319.3225  40.7474 14.27136259 53837
QIANFAN-28              
1 61561U 24185K   25232.29023146  .00000611  00000+0  24204-3 0  9992
2 61561  88.9779  90.3743 0005662 322.1737  37.9059 14.27707513 53849
QIANFAN-29              
1 61562U 24185L   25231.86540287  .00000164  00000+0  23485-3 0  9998
2 61562  88.9766  93.1982 0011317  32.2118 327.9722 13.50960868 52283
QIANFAN-30              
1 61563U 24185M   25232.27213950  .00000146  00000+0  21137-3 0  9991
2 61563  88.9769  92.6370 0008311  20.2782 339.8697 13.49933842 52627
QIANFAN-31              
1 61564U 24185N   25231.88061818  .00000097  00000+0  11785-3 0  9995
2 61564  88.9754  92.6612 0007994  19.9743 340.1723 13.57908124 52572
QIANFAN-32              
1 61565U 24185P   25232.23003523  .00000158  00000+0  22670-3 0  9998
2 61565  88.9813  92.7409 0010841  40.4857 319.7099 13.50686935 52590
